satname,norad_id,inclination_deg,eccentricity,mean_motion_rev_per_day,perigee_km,apogee_km,l1,l2
STARLINK-1298,45413,53.0516,0.0010249,15.42181525,432.68464057764777,446.6597859029471,1 45413U 20019BF  25262.45917526  .00067891  00000+0  15520-2 0  9990,2 45413  53.0516 173.5982 0010249  93.4329 266.7848 15.42181525304316
STARLINK-1309,45414,53.0551,0.0001667,15.06399442,546.0588122387417,548.367724018136,1 45414U 20019BG  25262.48662121  .00000205  00000+0  32656-4 0  9999,2 45414  53.0551 185.1820 0001667  92.0343 268.0837 15.06399442304043
STARLINK-1316,45415,53.0544,0.000134,15.06392384,546.3069001451186,548.1628998143142,1 45415U 20019BH  25262.51243054  .00001724  00000+0  13461-3 0  9993,2 45415  53.0544 185.0633 0001340  90.7319 269.3824 15.06392384304085
STARLINK-1318,45416,53.0541,0.0001,15.55341181,400.48310980760107,401.838969415523,1 45416U 20019BJ  25262.47392107  .00036526  00000+0  53304-3 0  9991,2 45416  53.0541 168.2474 0001000 125.6035 234.5069 15.55341181304308
STARLINK-1286,45417,53.0526,0.0001371,15.06407107,546.240313791508,548.1392383935117,1 45417U 20019BK  25261.28960718  .00000030  00000+0  20924-4 0  9993,2 45417  53.0526 220.5548 0001371  94.4218 265.6928 15.06407107303735
STARLINK-1308,45419,53.0502,0.0001529,15.06391325,546.1792558316656,548.297035551218,1 45419U 20019BM  25262.28113123 -.00000917  00000+0 -42709-4 0  9997,2 45419  53.0502 216.1016 0001529  88.3428 271.7736 15.06391325303630
STARLINK-1329,45531,53.0538,0.0001396,15.0639436,546.2620627081096,548.1956248516935,1 45531U 20025A   25261.98442200  .00005038  00000+0  35689-3 0  9991,2 45531  53.0538 157.4343 0001396  67.1185 292.9952 15.06394360299216
STARLINK-1338,45532,53.0544,0.0001522,15.06388406,546.1930486475239,548.3011355651624,1 45532U 20025B   25261.99548271  .00001401  00000+0  11295-3 0  9995,2 45532  53.0544 157.3814 0001522  65.8781 294.2367 15.06388406299213
STARLINK-1350,45535,53.0744,0.0002766,15.30969402,471.0237338750976,474.8137379081936,1 45535U 20025E   25262.59215407  .00009519  00000+0  32535-3 0  9995,2 45535  53.0744 113.6175 0002766 113.6161 246.5130 15.30969402299900
STARLINK-1362,45538,53.0535,0.0001146,15.06400289,546.4170273518102,548.0043170382769,1 45538U 20025H   25262.09402571  .00006371  00000+0  44619-3 0  9992,2 45538  53.0535 156.6600 0001146  87.8626 272.2494 15.06400289299231
STARLINK-1368,45540,53.0547,0.0001091,15.06392755,546.4782049585674,547.9893208590338,1 45540U 20025K   25262.43042247  .00002364  00000+0  17755-3 0  9992,2 45540  53.0547 155.4316 0001091  89.1574 270.9540 15.06392755299273
STARLINK-1371,45542,53.0538,0.0001123,15.06424013,546.3602541511236,547.9156709077079,1 45542U 20025M   25262.40089500  .00006287  00000+0  44029-3 0  9996,2 45542  53.0538 155.5642 0001123  75.7821 284.3293 15.06424013299277
STARLINK-1372,45543,53.055,0.0001443,15.06386097,546.2548350129227,548.2535029042847,1 45543U 20025N   25262.43778657  .00001540  00000+0  12227-3 0  9990,2 45543  53.0550 155.3979 0001443  96.5148 263.6006 15.06386097298372
STARLINK-1373,45544,53.0541,0.0001811,15.0641424,545.9137420129537,548.4220874530711,1 45544U 20025P   25261.99178763  .00008922  00000+0  61686-3 0  9997,2 45544  53.0541 157.4025 0001811  66.7671 293.3509 15.06414240299211
STARLINK-1294,45551,53.0513,0.0005074,15.50697314,411.24223772372716,418.1355974649032,1 45551U 20025W   25262.58339120  .00108901  00000+0  18454-2 0  9999,2 45551  53.0513 102.6277 0005074 198.2231 350.2949 15.50697314  5958
STARLINK-1323,45553,53.0368,0.0005865,15.88171541,303.488240317346,311.33038614276575,1 45553U 20025Y   25262.58339120  .00165095  00000+0  58088-3 0  9996,2 45553  53.0368  85.9398 0005865  90.5289 257.5733 15.88171541  5950
STARLINK-1325,45554,53.0601,8.87e-05,15.46107768,427.521343282031,428.7287741712498,1 45554U 20025Z   25261.83032026  .00055119  00000+0  11085-2 0  9999,2 45554  53.0601  97.9423 0000887 245.8507 114.2407 15.46107768300049
STARLINK-1327,45555,53.0526,0.0001598,15.06372434,546.1893608458249,548.4027292470219,1 45555U 20025AA  25262.62762061  .00008735  00000+0  60502-3 0  9998,2 45555  53.0526 134.5466 0001598  89.1865 270.9307 15.06372434299582
STARLINK-1336,45557,53.0394,0.0007032,15.83423171,316.057717512248,325.47905804962375,1 45557U 20025AC  25262.58339120  .00260452  00000+0  11384-2 0  9990,2 45557  53.0394  91.4257 0007032 111.4908  17.9908 15.83423171  6034
STARLINK-1342,45558,53.0442,0.0003367,15.93145549,291.2402953525843,295.7329667057202,1 45558U 20025AD  25262.58339120  .00302632  46146-4  84750-3 0  9992,2 45558  53.0442  88.1396 0003367 104.9694  13.4433 15.93145549  5902
STARLINK-1355,45563,53.0294,0.0010183,16.11947453,234.76551213012954,248.24707766451684,1 45563U 20025AJ  25262.32761373  .00823154  40118-3  74526-3 0  9998,2 45563  53.0294  18.1685 0010183 332.2243  27.8246 16.11947453301182
STARLINK-1356,45564,53.0531,0.0001374,15.0640583,546.242149448788,548.1452303223687,1 45564U 20025AK  25262.63130002  .00005460  00000+0  38510-3 0  9999,2 45564  53.0531 134.5286 0001374 101.5434 258.5710 15.06405830299588
STARLINK-1357,45565,53.067,0.0008649,15.24897259,485.1527646789864,497.03516039798524,1 45565U 20025AL  25262.61277025  .00045009  00000+0  17868-2 0  9990,2 45565  53.0670 126.1454 0008649 106.7072 253.4875 15.24897259299704
STARLINK-1361,45567,53.0535,0.0001274,15.06401517,546.3246197417166,548.0891973696171,1 45567U 20025AN  25262.38434491  .00003238  00000+0  23617-3 0  9996,2 45567  53.0535 135.6399 0001274  84.1804 275.9330 15.06401517299554
STARLINK-1363,45568,53.0529,0.0001428,15.06401862,546.2169122231844,548.1947901414833,1 45568U 20025AP  25261.93469066  .00006912  00000+0  48247-3 0  9991,2 45568  53.0529 137.8988 0001428  73.9343 286.1803 15.06401862299474
STARLINK-1366,45569,53.0539,0.0001371,15.06404835,546.2472761436093,548.1462026549516,1 45569U 20025AQ  25262.38802386  .00003016  00000+0  22128-3 0  9990,2 45569  53.0539 135.6214 0001371  89.3017 270.8129 15.06404835299542
STARLINK-1376,45570,53.0539,0.0001152,15.06401398,546.409473612659,548.0050729332215,1 45570U 20025AR  25262.38066262  .00005870  00000+0  41265-3 0  9990,2 45570  53.0539 135.6559 0001152  89.6904 270.4217 15.06401398299546
STARLINK-1320,45572,53.062,0.000889,15.35087292,454.5815341211055,466.74091736647733,1 45572U 20025AT  25262.24947447  .00077646  00000+0  22336-2 0  9997,2 45572  53.0620  89.2793 0008890 164.4775 195.6501 15.35087292300202
STARLINK-1321,45573,53.0536,0.0001472,15.06407572,546.1689430543956,548.2077588377142,1 45573U 20025AU  25262.63221722  .00004022  00000+0  28868-3 0  9997,2 45573  53.0536 124.5253 0001472  84.8782 275.2375 15.06407572299425
STARLINK-1328,45576,53.0546,0.0002083,15.53922202,403.8744785662748,406.70045319876135,1 45576U 20025AX  25262.32682031  .00095705  00000+0  14482-2 0  9994,2 45576  53.0546 118.5739 0002083 161.5260 198.5825 15.53922202299795
STARLINK-1331,45578,53.0531,0.0001108,15.06405594,546.4270864664359,547.9617399075987,1 45578U 20025AZ  25262.61010947  .00005742  00000+0  40400-3 0  9991,2 45578  53.0531 124.6250 0001108  92.1077 268.0039 15.06405594299731
STARLINK-1333,45580,53.0534,0.0001271,15.06412018,546.29451762385,548.0549318642807,1 45580U 20025BB  25262.35116923  .00006138  00000+0  43043-3 0  9992,2 45580  53.0534 135.7883 0001271  84.6010 275.5124 15.06412018299542
STARLINK-1335,45581,53.0543,0.0001582,15.0640824,546.0907174935364,548.2818897868074,1 45581U 20025BC  25262.35577611  .00001927  00000+0  14823-3 0  9993,2 45581  53.0543 125.7670 0001582  85.3125 274.8044 15.06408240299686
STARLINK-1337,45582,53.0543,0.0001544,15.06392882,546.164096483305,548.3026508546945,1 45582U 20025BD  25262.04616019  .00001840  00000+0  14239-3 0  9991,2 45582  53.0543 127.1558 0001544  97.8812 262.2352 15.06392882299639
STARLINK-1347,45586,53.0604,0.0008103,15.24229992,487.53083078278814,498.6663551847778,1 45586U 20025BH  25262.59056103  .00045417  00000+0  18392-2 0  9998,2 45586  53.0604 116.5479 0008103 112.4376 247.7480 15.24229992299824
STARLINK-1360,45588,53.0492,0.0001994,15.66312537,368.1210862886428,370.81203058774827,1 45588U 20025BK  25262.58404841  .00058498  00000+0  55608-3 0  9990,2 45588  53.0492  48.1669 0001994 333.6261  26.4652 15.66312537300799
STARLINK-1364,45589,53.0552,0.0001559,15.06393468,546.1519126885823,548.3112426110938,1 45589U 20025BL  25262.31523074  .00001297  00000+0  10598-3 0  9996,2 45589  53.0552 125.9516 0001559  93.5691 266.5477 15.06393468299670
STARLINK-1365,45590,53.0546,0.0001263,15.06392647,546.3594195467585,548.1087682850821,1 45590U 20025BM  25262.39724441  .00000160  00000+0  29666-4 0  9992,2 45590  53.0546 155.5815 0001263  86.3549 273.7585 15.06392647299285
STARLINK-1443,45660,53.053,0.0001132,15.06401337,546.4235112359729,547.9914092217687,1 45660U 20035D   25262.58154242  .00004219  00000+0  30197-3 0  9997,2 45660  53.0530 114.7554 0001132  90.6578 269.4541 15.06401337292945
STARLINK-1446,45663,53.0271,0.0006928,15.29159315,473.5739730936948,483.0742856345414,1 45663U 20035G   25262.48821208  .00056887  00000+0  19793-2 0  9998,2 45663  53.0271  85.5525 0006928 122.0131 238.1541 15.29159315293345
STARLINK-1448,45665,53.0531,0.0001205,15.06404935,546.3619302366733,548.0309355940062,1 45665U 20035J   25262.58522266  .00004190  00000+0  29995-3 0  9999,2 45665  53.0531 114.7345 0001205  89.3370 270.7757 15.06404935292935
STARLINK-1451,45668,53.053,0.0001249,15.06409046,546.3188608177898,548.0488059619711,1 45668U 20035M   25262.58894996  .00005288  00000+0  37357-3 0  9994,2 45668  53.0530 115.0382 0001249  86.5761 273.5371 15.06409046292945
STARLINK-1452,45669,53.0481,0.0004693,15.21394993,498.4032705746904,504.8606217075394,1 45669U 20035N   25262.52613426  .00012805  00000+0  57699-3 0  9990,2 45669  53.0481 101.5433 0004693 184.5558 175.5395 15.21394993293126
